{"type": "FeatureCollection", "features": [ {"type": "Feature", "properties": {"norad_id": 31737, "name": "FENGYUN 1C DEB", "group": "fengyun-1c-debris", "lat": -17.63777403420324, "lon": -148.27681747265748, "alt_km": 738.2610104287915, "timestamp": "2025-12-27T04:40:45.789316+00:00", "meta": {"OBJECT_NAME": "FENGYUN 1C DEB", "OBJECT_ID": "1999-025CEL", "EPOCH": "2025-12-26T01:51:52.536960", "MEAN_MOTION": 14.68842254, "ECCENTRICITY": 0.01476107, "INCLINATION": 97.9161, "RA_OF_ASC_NODE": 33.1763, "ARG_OF_PERICENTER": 333.1256, "MEAN_ANOMALY": 81.3773, "EPHEMERIS_TYPE": 0, "CLASSIFICATION_TYPE": "U", "NORAD_CAT_ID": 31737, "ELEMENT_SET_NO": 999, "REV_AT_EPOCH": 98395, "BSTAR": 0.00058636947, "MEAN_MOTION_DOT": 3.99e-05, "MEAN_MOTION_DDOT": 0}, "tle": {"line1": "1 31737U 99025CEL 25360.07769140  .00003990  00000+0  58637-3 0  9998", "line2": "2 31737  97.9161  33.1763 0147610 333.1256  81.3773 14.68842254983958"}}, "geometry": {"type": "Point", "coordinates": [-148.27681747265748, -17.63777403420324]}}, {"type": "Feature", "properties": {"norad_id": 31738, "name": "FENGYUN 1C DEB", "group": "fengyun-1c-debris", "lat": -24.045280270724188, "lon": -115.79321583928234, "alt_km": 1126.9729079566077, "timestamp": "2025-12-27T04:40:45.789326+00:00", "meta": {"OBJECT_NAME": "FENGYUN 1C DEB", "OBJECT_ID": "1999-025CEM", "EPOCH": "2025-12-23T21:42:29.765088", "MEAN_MOTION": 13.85097966, "ECCENTRICITY": 0.0306503, "INCLINATION": 99.3607, "RA_OF_ASC_NODE": 65.1392, "ARG_OF_PERICENTER": 70.4545, "MEAN_ANOMALY": 292.9435, "EPHEMERIS_TYPE": 0, "CLASSIFICATION_TYPE": "U", "NORAD_CAT_ID": 31738, "ELEMENT_SET_NO": 999, "REV_AT_EPOCH": 62412, "BSTAR": 0.0013333, "MEAN_MOTION_DOT": 2.136e-05, "MEAN_MOTION_DDOT": 0}, "tle": {"line1": "1 31738U 99025CEM 25357.90451117  .00002136  00000+0  13333-2 0  9993", "line2": "2 31738  99.3607  65.1392 0306503  70.4545 292.9435 13.85097966624129"}}, "geometry": {"type": "Point", "coordinates": [-115.79321583928234, -24.045280270724188]}}, {"type": "Feature", "properties": {"norad_id": 31739, "name": "FENGYUN 1C DEB", "group": "fengyun-1c-debris", "lat": 79.7850735494935, "lon": -64.97421450088434, "alt_km": 771.3283326057672, "timestamp": "2025-12-27T04:40:45.789336+00:00", "meta": {"OBJECT_NAME": "FENGYUN 1C DEB", "OBJECT_ID": "1999-025CEN", "EPOCH": "2025-12-22T21:01:48.237600", "MEAN_MOTION": 14.19222249, "ECCENTRICITY": 0.012814, "INCLINATION": 98.7461, "RA_OF_ASC_NODE": 52.0797, "ARG_OF_PERICENTER": 49.2852, "MEAN_ANOMALY": 311.9371, "EPHEMERIS_TYPE": 0, "CLASSIFICATION_TYPE": "U", "NORAD_CAT_ID": 31739, "ELEMENT_SET_NO": 999, "REV_AT_EPOCH": 95630, "BSTAR": 9.2432e-05, "MEAN_MOTION_DOT": 1.67e-06, "MEAN_MOTION_DDOT": 0}, "tle": {"line1": "1 31739U 99025CEN 25356.87625275  .00000167  00000+0  92432-4 0  9998", "line2": "2 31739  98.7461  52.0797 0128140  49.2852 311.9371 14.19222249956300"}}, "geometry": {"type": "Point", "coordinates": [-64.97421450088434, 79.7850735494935]}}, {"type": "Feature", "properties": {"norad_id": 31740, "name": "FENGYUN 1C DEB", "group": "fengyun-1c-debris", "lat": 13.972673881330728, "lon": -2.8285214544815753, "alt_km": 764.9985033980875, "timestamp": "2025-12-27T04:40:45.789346+00:00", "meta": {"OBJECT_NAME": "FENGYUN 1C DEB", "OBJECT_ID": "1999-025CEP", "EPOCH": "2025-12-24T23:19:56.739072", "MEAN_MOTION": 14.42257386, "ECCENTRICITY": 0.00243017, "INCLINATION": 99.8206, "RA_OF_ASC_NODE": 172.1465, "ARG_OF_PERICENTER": 32.9385, "MEAN_ANOMALY": 117.9061, "EPHEMERIS_TYPE": 0, "CLASSIFICATION_TYPE": "U", "NORAD_CAT_ID": 31740, "ELEMENT_SET_NO": 999, "REV_AT_EPOCH": 65251, "BSTAR": 0.0013330711, "MEAN_MOTION_DOT": 4.359e-05, "MEAN_MOTION_DDOT": 0}, "tle": {"line1": "1 31740U 99025CEP 25358.97218448  .00004359  00000+0  13331-2 0  9999", "line2": "2 31740  99.8206 172.1465 0024301  32.9385 117.9061 14.42257386652513"}}, "geometry": {"type": "Point", "coordinates": [-2.8285214544815753, 13.972673881330728]}}, {"type": "Feature", "properties": {"norad_id": 31742, "name": "FENGYUN 1C DEB", "group": "fengyun-1c-debris", "lat": 37.57268755627592, "lon": 48.53760494472031, "alt_km": 800.4001741767888, "timestamp": "2025-12-27T04:40:45.789356+00:00", "meta": {"OBJECT_NAME": "FENGYUN 1C DEB", "OBJECT_ID": "1999-025CER", "EPOCH": "2025-12-25T01:58:59.652768", "MEAN_MOTION": 14.39845332, "ECCENTRICITY": 0.00759259, "INCLINATION": 98.9186, "RA_OF_ASC_NODE": 219.4004, "ARG_OF_PERICENTER": 292.9263, "MEAN_ANOMALY": 66.3923, "EPHEMERIS_TYPE": 0, "CLASSIFICATION_TYPE": "U", "NORAD_CAT_ID": 31742, "ELEMENT_SET_NO": 999, "REV_AT_EPOCH": 96827, "BSTAR": 0.00070014555, "MEAN_MOTION_DOT": 2.225e-05, "MEAN_MOTION_DDOT": 0}, "tle": {"line1": "1 31742U 99025CER 25359.08263487  .00002225  00000+0  70015-3 0  9990", "line2": "2 31742  98.9186 219.4004 0075925 292.9263  66.3923 14.39845332968274"}}, "geometry": {"type": "Point", "coordinates": [48.53760494472031, 37.57268755627592]}}, {"type": "Feature", "properties": {"norad_id": 31743, "name": "FENGYUN 1C DEB", "group": "fengyun-1c-debris", "lat": 35.037081997178596, "lon": 116.3480606331342, "alt_km": 761.7326501948055, "timestamp": "2025-12-27T04:40:45.789366+00:00", "meta": {"OBJECT_NAME": "FENGYUN 1C DEB", "OBJECT_ID": "1999-025CES", "EPOCH": "2025-12-26T06:55:42.498048", "MEAN_MOTION": 14.31388211, "ECCENTRICITY": 0.0037315, "INCLINATION": 99.1417, "RA_OF_ASC_NODE": 288.9119, "ARG_OF_PERICENTER": 177.9699, "MEAN_ANOMALY": 339.1169, "EPHEMERIS_TYPE": 0, "CLASSIFICATION_TYPE": "U", "NORAD_CAT_ID": 31743, "ELEMENT_SET_NO": 999, "REV_AT_EPOCH": 95834, "BSTAR": 0.0013637, "MEAN_MOTION_DOT": 3.596e-05, "MEAN_MOTION_DDOT": 0}, "tle": {"line1": "1 31743U 99025CES 25360.28868632  .00003596  00000+0  13637-2 0  9996", "line2": "2 31743  99.1417 288.9119 0037315 177.9699 339.1169 14.31388211958349"}}, "geometry": {"type": "Point", "coordinates": [116.3480606331342, 35.037081997178596]}}, {"type": "Feature", "properties": {"norad_id": 31744, "name": "FENGYUN 1C DEB", "group": "fengyun-1c-debris", "lat": 55.24664696830836, "lon": 99.17912528956134, "alt_km": 689.3463685783017, "timestamp": "2025-12-27T04:40:45.789376+00:00", "meta": {"OBJECT_NAME": "FENGYUN 1C DEB", "OBJECT_ID": "1999-025CET", "EPOCH": "2025-12-17T13:54:12.794400", "MEAN_MOTION": 14.16604274, "ECCENTRICITY": 0.03151073, "INCLINATION": 99.3037, "RA_OF_ASC_NODE": 102.7793, "ARG_OF_PERICENTER": 30.7507, "MEAN_ANOMALY": 331.1716, "EPHEMERIS_TYPE": 0, "CLASSIFICATION_TYPE": "U", "NORAD_CAT_ID": 31744, "ELEMENT_SET_NO": 999, "REV_AT_EPOCH": 94683, "BSTAR": 0.00098574439, "MEAN_MOTION_DOT": 3.146e-05, "MEAN_MOTION_DDOT": 0}, "tle": {"line1": "1 31744U 99025CET 25351.57931475  .00003146  00000+0  98574-3 0  9990", "line2": "2 31744  99.3037 102.7793 0315107  30.7507 331.1716 14.16604274946837"}}, "geometry": {"type": "Point", "coordinates": [99.17912528956134, 55.24664696830836]}}, {"type": "Feature", "properties": {"norad_id": 31746, "name": "FENGYUN 1C DEB", "group": "fengyun-1c-debris", "lat": 27.218926088563435, "lon": 120.24199690643137, "alt_km": 647.893850206412, "timestamp": "2025-12-27T04:40:45.789385+00:00", "meta": {"OBJECT_NAME": "FENGYUN 1C DEB", "OBJECT_ID": "1999-025CEV", "EPOCH": "2025-12-22T07:30:54.832032", "MEAN_MOTION": 14.77180298, "ECCENTRICITY": 0.00226914, "INCLINATION": 98.5896, "RA_OF_ASC_NODE": 119.5049, "ARG_OF_PERICENTER": 179.7871, "MEAN_ANOMALY": 180.3351, "EPHEMERIS_TYPE": 0, "CLASSIFICATION_TYPE": "U", "NORAD_CAT_ID": 31746, "ELEMENT_SET_NO": 999, "REV_AT_EPOCH": 97169, "BSTAR": 0.0037623733, "MEAN_MOTION_DOT": 0.00026782, "MEAN_MOTION_DDOT": 0}, "tle": {"line1": "1 31746U 99025CEV 25356.31313463  .00026782  00000+0  37624-2 0  9999", "line2": "2 31746  98.5896 119.5049 0022691 179.7871 180.3351 14.77180298971697"}}, "geometry": {"type": "Point", "coordinates": [120.24199690643137, 27.218926088563435]}}, {"type": "Feature", "properties": {"norad_id": 31752, "name": "FENGYUN 1C DEB", "group": "fengyun-1c-debris", "lat": -60.91824601998839, "lon": -122.93406030664703, "alt_km": 759.0737344762692, "timestamp": "2025-12-27T04:40:45.789395+00:00", "meta": {"OBJECT_NAME": "FENGYUN 1C DEB", "OBJECT_ID": "1999-025CFB", "EPOCH": "2025-12-18T10:55:16.632768", "MEAN_MOTION": 13.93070684, "ECCENTRICITY": 0.03557691, "INCLINATION": 98.9786, "RA_OF_ASC_NODE": 65.0821, "ARG_OF_PERICENTER": 317.9795, "MEAN_ANOMALY": 39.4568, "EPHEMERIS_TYPE": 0, "CLASSIFICATION_TYPE": "U", "NORAD_CAT_ID": 31752, "ELEMENT_SET_NO": 999, "REV_AT_EPOCH": 93670, "BSTAR": 0.0010716417, "MEAN_MOTION_DOT": 2.302e-05, "MEAN_MOTION_DDOT": 0}, "tle": {"line1": "1 31752U 99025CFB 25352.45505362  .00002302  00000+0  10716-2 0  9993", "line2": "2 31752  98.9786  65.0821 0355769 317.9795  39.4568 13.93070684936706"}}, "geometry": {"type": "Point", "coordinates": [-122.93406030664703, -60.91824601998839]}}, {"type": "Feature", "properties": {"norad_id": 31753, "name": "FENGYUN 1C DEB", "group": "fengyun-1c-debris", "lat": 36.93681899592603, "lon": 27.37501335609603, "alt_km": 834.881792162615, "timestamp": "2025-12-27T04:40:45.789405+00:00", "meta": {"OBJECT_NAME": "FENGYUN 1C DEB", "OBJECT_ID": "1999-025CFC", "EPOCH": "2025-12-26T20:51:30.107808", "MEAN_MOTION": 14.18656577, "ECCENTRICITY": 0.01596551, "INCLINATION": 98.6305, "RA_OF_ASC_NODE": 33.6144, "ARG_OF_PERICENTER": 133.189, "MEAN_ANOMALY": 42.7931, "EPHEMERIS_TYPE": 0, "CLASSIFICATION_TYPE": "U", "NORAD_CAT_ID": 31753, "ELEMENT_SET_NO": 999, "REV_AT_EPOCH": 96219, "BSTAR": 0.0002867327, "MEAN_MOTION_DOT": 6.33e-06, "MEAN_MOTION_DDOT": 0}, "tle": {"line1": "1 31753U 99025CFC 25360.86909847  .00000633  00000+0  28673-3 0  9991", "line2": "2 31753  98.6305  33.6144 0159655 133.1890  42.7931 14.18656577962192"}}, "geometry": {"type": "Point", "coordinates": [27.37501335609603, 36.93681899592603]}}]}